ISS DEB                 
1 44305U 98067QC  20177.55953133  .00016930  00000-0  17727-3 0  9993
2 44305  51.6350 285.4842 0003081  35.7143 324.4058 15.64544584 61207
ISS DEB                 
1 44306U 98067QD  20177.59151704  .00002460  00000-0  43955-4 0  9998
2 44306  51.6407 298.5356 0006556 358.8423   1.2552 15.54432201 61037
RAAVANA-1               
1 44329U 98067QE  20177.59572883  .00006510  00000-0  91591-4 0  9997
2 44329  51.6401 293.3308 0005861  34.9921 325.1456 15.58034276 58276
UGUISU                  
1 44330U 98067QF  20177.60865233  .00006261  00000-0  88629-4 0  9996
2 44330  51.6383 293.4105 0005887  33.8540 326.2827 15.57946727 58250
NEPALISAT-1             
1 44331U 98067QG  20177.58804171  .00006377  00000-0  89791-4 0  9997
2 44331  51.6383 293.2752 0005913  37.1538 322.9863 15.58054856 58269
SPOOQY-1                
1 44332U 98067QH  20177.59197084  .00006242  00000-0  88342-4 0  9999
2 44332  51.6391 293.2995 0004911  40.1920 319.9434 15.57959857 58224
PINOT                   
1 44364U 98067QJ  20177.56812326  .00002918  00000-0  51192-4 0  9993
2 44364  51.6420 299.1647 0006870   0.0407   0.0584 15.54206923 56602
IOD-1 GEMS              
1 44385U 98067QK  20177.50299135  .00009889  00000-0  12433-3 0  9995
2 44385  51.6403 292.0086 0002417 356.3446   3.7529 15.60371326 55759
