<?xml version="1.0" encoding="UTF-8"?>
<ndm xmlns:xsi="https://www.w3.org/2001/XMLSchema-instance" xsi:noNamespaceSchemaLocation="https://sanaregistry.org/r/ndmxml/ndmxml-1.0-master.xsd">
<omm id="CCSDS_OMM_VERS" version="2.0">
<header><CREATION_DATE/><ORIGINATOR/></header><body><segment><metadata><OBJECT_NAME>ISS DEB</OBJECT_NAME><OBJECT_ID>1998-067QC</OBJECT_ID><CENTER_NAME>EARTH</CENTER_NAME><REF_FRAME>TEME</REF_FRAME><TIME_SYSTEM>UTC</TIME_SYSTEM><MEAN_ELEMENT_THEORY>SGP4</MEAN_ELEMENT_THEORY></metadata><data><meanElements><EPOCH>2020-06-25T13:25:43.506912</EPOCH><MEAN_MOTION>15.64544584</MEAN_MOTION><ECCENTRICITY>.0003081</ECCENTRICITY><INCLINATION>51.6350</INCLINATION><RA_OF_ASC_NODE>285.4842</RA_OF_ASC_NODE><ARG_OF_PERICENTER>35.7143</ARG_OF_PERICENTER><MEAN_ANOMALY>324.4058</MEAN_ANOMALY></meanElements><tleParameters><EPHEMERIS_TYPE>0</EPHEMERIS_TYPE><CLASSIFICATION_TYPE>U</CLASSIFICATION_TYPE><NORAD_CAT_ID>44305</NORAD_CAT_ID><ELEMENT_SET_NO>999</ELEMENT_SET_NO><REV_AT_EPOCH>6120</REV_AT_EPOCH><BSTAR>.17727E-3</BSTAR><MEAN_MOTION_DOT>1.693E-4</MEAN_MOTION_DOT><MEAN_MOTION_DDOT>0</MEAN_MOTION_DDOT></tleParameters></data></segment></body></omm>
<omm id="CCSDS_OMM_VERS" version="2.0">
<header><CREATION_DATE/><ORIGINATOR/></header><body><segment><metadata><OBJECT_NAME>ISS DEB</OBJECT_NAME><OBJECT_ID>1998-067QD</OBJECT_ID><CENTER_NAME>EARTH</CENTER_NAME><REF_FRAME>TEME</REF_FRAME><TIME_SYSTEM>UTC</TIME_SYSTEM><MEAN_ELEMENT_THEORY>SGP4</MEAN_ELEMENT_THEORY></metadata><data><meanElements><EPOCH>2020-06-25T14:11:47.072256</EPOCH><MEAN_MOTION>15.54432201</MEAN_MOTION><ECCENTRICITY>.0006556</ECCENTRICITY><INCLINATION>51.6407</INCLINATION><RA_OF_ASC_NODE>298.5356</RA_OF_ASC_NODE><ARG_OF_PERICENTER>358.8423</ARG_OF_PERICENTER><MEAN_ANOMALY>1.2552</MEAN_ANOMALY></meanElements><tleParameters><EPHEMERIS_TYPE>0</EPHEMERIS_TYPE><CLASSIFICATION_TYPE>U</CLASSIFICATION_TYPE><NORAD_CAT_ID>44306</NORAD_CAT_ID><ELEMENT_SET_NO>999</ELEMENT_SET_NO><REV_AT_EPOCH>6103</REV_AT_EPOCH><BSTAR>.43955E-4</BSTAR><MEAN_MOTION_DOT>2.46E-5</MEAN_MOTION_DOT><MEAN_MOTION_DDOT>0</MEAN_MOTION_DDOT></tleParameters></data></segment></body></omm>
<omm id="CCSDS_OMM_VERS" version="2.0">
<header><CREATION_DATE/><ORIGINATOR/></header><body><segment><metadata><OBJECT_NAME>RAAVANA-1</OBJECT_NAME><OBJECT_ID>1998-067QE</OBJECT_ID><CENTER_NAME>EARTH</CENTER_NAME><REF_FRAME>TEME</REF_FRAME><TIME_SYSTEM>UTC</TIME_SYSTEM><MEAN_ELEMENT_THEORY>SGP4</MEAN_ELEMENT_THEORY></metadata><data><meanElements><EPOCH>2020-06-25T14:17:50.970912</EPOCH><MEAN_MOTION>15.58034276</MEAN_MOTION><ECCENTRICITY>.0005861</ECCENTRICITY><INCLINATION>51.6401</INCLINATION><RA_OF_ASC_NODE>293.3308</RA_OF_ASC_NODE><ARG_OF_PERICENTER>34.9921</ARG_OF_PERICENTER><MEAN_ANOMALY>325.1456</MEAN_ANOMALY></meanElements><tleParameters><EPHEMERIS_TYPE>0</EPHEMERIS_TYPE><CLASSIFICATION_TYPE>U</CLASSIFICATION_TYPE><NORAD_CAT_ID>44329</NORAD_CAT_ID><ELEMENT_SET_NO>999</ELEMENT_SET_NO><REV_AT_EPOCH>5827</REV_AT_EPOCH><BSTAR>.91591E-4</BSTAR><MEAN_MOTION_DOT>6.51E-5</MEAN_MOTION_DOT><MEAN_MOTION_DDOT>0</MEAN_MOTION_DDOT></tleParameters></data></segment></body></omm>
<omm id="CCSDS_OMM_VERS" version="2.0">
<header><CREATION_DATE/><ORIGINATOR/></header><body><segment><metadata><OBJECT_NAME>UGUISU</OBJECT_NAME><OBJECT_ID>1998-067QF</OBJECT_ID><CENTER_NAME>EARTH</CENTER_NAME><REF_FRAME>TEME</REF_FRAME><TIME_SYSTEM>UTC</TIME_SYSTEM><MEAN_ELEMENT_THEORY>SGP4</MEAN_ELEMENT_THEORY></metadata><data><meanElements><EPOCH>2020-06-25T14:36:27.561312</EPOCH><MEAN_MOTION>15.57946727</MEAN_MOTION><ECCENTRICITY>.0005887</ECCENTRICITY><INCLINATION>51.6383</INCLINATION><RA_OF_ASC_NODE>293.4105</RA_OF_ASC_NODE><ARG_OF_PERICENTER>33.8540</ARG_OF_PERICENTER><MEAN_ANOMALY>326.2827</MEAN_ANOMALY></meanElements><tleParameters><EPHEMERIS_TYPE>0</EPHEMERIS_TYPE><CLASSIFICATION_TYPE>U</CLASSIFICATION_TYPE><NORAD_CAT_ID>44330</NORAD_CAT_ID><ELEMENT_SET_NO>999</ELEMENT_SET_NO><REV_AT_EPOCH>5825</REV_AT_EPOCH><BSTAR>.88629E-4</BSTAR><MEAN_MOTION_DOT>6.261E-5</MEAN_MOTION_DOT><MEAN_MOTION_DDOT>0</MEAN_MOTION_DDOT></tleParameters></data></segment></body></omm>
<omm id="CCSDS_OMM_VERS" version="2.0">
<header><CREATION_DATE/><ORIGINATOR/></header><body><segment><metadata><OBJECT_NAME>NEPALISAT-1</OBJECT_NAME><OBJECT_ID>1998-067QG</OBJECT_ID><CENTER_NAME>EARTH</CENTER_NAME><REF_FRAME>TEME</REF_FRAME><TIME_SYSTEM>UTC</TIME_SYSTEM><MEAN_ELEMENT_THEORY>SGP4</MEAN_ELEMENT_THEORY></metadata><data><meanElements><EPOCH>2020-06-25T14:06:46.803744</EPOCH><MEAN_MOTION>15.58054856</MEAN_MOTION><ECCENTRICITY>.0005913</ECCENTRICITY><INCLINATION>51.6383</INCLINATION><RA_OF_ASC_NODE>293.2752</RA_OF_ASC_NODE><ARG_OF_PERICENTER>37.1538</ARG_OF_PERICENTER><MEAN_ANOMALY>322.9863</MEAN_ANOMALY></meanElements><tleParameters><EPHEMERIS_TYPE>0</EPHEMERIS_TYPE><CLASSIFICATION_TYPE>U</CLASSIFICATION_TYPE><NORAD_CAT_ID>44331</NORAD_CAT_ID><ELEMENT_SET_NO>999</ELEMENT_SET_NO><REV_AT_EPOCH>5826</REV_AT_EPOCH><BSTAR>.89791E-4</BSTAR><MEAN_MOTION_DOT>6.377E-5</MEAN_MOTION_DOT><MEAN_MOTION_DDOT>0</MEAN_MOTION_DDOT></tleParameters></data></segment></body></omm>
<omm id="CCSDS_OMM_VERS" version="2.0">
<header><CREATION_DATE/><ORIGINATOR/></header><body><segment><metadata><OBJECT_NAME>SPOOQY-1</OBJECT_NAME><OBJECT_ID>1998-067QH</OBJECT_ID><CENTER_NAME>EARTH</CENTER_NAME><REF_FRAME>TEME</REF_FRAME><TIME_SYSTEM>UTC</TIME_SYSTEM><MEAN_ELEMENT_THEORY>SGP4</MEAN_ELEMENT_THEORY></metadata><data><meanElements><EPOCH>2020-06-25T14:12:26.280576</EPOCH><MEAN_MOTION>15.57959857</MEAN_MOTION><ECCENTRICITY>.0004911</ECCENTRICITY><INCLINATION>51.6391</INCLINATION><RA_OF_ASC_NODE>293.2995</RA_OF_ASC_NODE><ARG_OF_PERICENTER>40.1920</ARG_OF_PERICENTER><MEAN_ANOMALY>319.9434</MEAN_ANOMALY></meanElements><tleParameters><EPHEMERIS_TYPE>0</EPHEMERIS_TYPE><CLASSIFICATION_TYPE>U</CLASSIFICATION_TYPE><NORAD_CAT_ID>44332</NORAD_CAT_ID><ELEMENT_SET_NO>999</ELEMENT_SET_NO><REV_AT_EPOCH>5822</REV_AT_EPOCH><BSTAR>.88342E-4</BSTAR><MEAN_MOTION_DOT>6.242E-5</MEAN_MOTION_DOT><MEAN_MOTION_DDOT>0</MEAN_MOTION_DDOT></tleParameters></data></segment></body></omm>
<omm id="CCSDS_OMM_VERS" version="2.0">
<header><CREATION_DATE/><ORIGINATOR/></header><body><segment><metadata><OBJECT_NAME>PINOT</OBJECT_NAME><OBJECT_ID>1998-067QJ</OBJECT_ID><CENTER_NAME>EARTH</CENTER_NAME><REF_FRAME>TEME</REF_FRAME><TIME_SYSTEM>UTC</TIME_SYSTEM><MEAN_ELEMENT_THEORY>SGP4</MEAN_ELEMENT_THEORY></metadata><data><meanElements><EPOCH>2020-06-25T13:38:05.849664</EPOCH><MEAN_MOTION>15.54206923</MEAN_MOTION><ECCENTRICITY>.0006870</ECCENTRICITY><INCLINATION>51.6420</INCLINATION><RA_OF_ASC_NODE>299.1647</RA_OF_ASC_NODE><ARG_OF_PERICENTER>0.0407</ARG_OF_PERICENTER><MEAN_ANOMALY>0.0584</MEAN_ANOMALY></meanElements><tleParameters><EPHEMERIS_TYPE>0</EPHEMERIS_TYPE><CLASSIFICATION_TYPE>U</CLASSIFICATION_TYPE><NORAD_CAT_ID>44364</NORAD_CAT_ID><ELEMENT_SET_NO>999</ELEMENT_SET_NO><REV_AT_EPOCH>5660</REV_AT_EPOCH><BSTAR>.51192E-4</BSTAR><MEAN_MOTION_DOT>2.918E-5</MEAN_MOTION_DOT><MEAN_MOTION_DDOT>0</MEAN_MOTION_DDOT></tleParameters></data></segment></body></omm>
<omm id="CCSDS_OMM_VERS" version="2.0">
<header><CREATION_DATE/><ORIGINATOR/></header><body><segment><metadata><OBJECT_NAME>IOD-1 GEMS</OBJECT_NAME><OBJECT_ID>1998-067QK</OBJECT_ID><CENTER_NAME>EARTH</CENTER_NAME><REF_FRAME>TEME</REF_FRAME><TIME_SYSTEM>UTC</TIME_SYSTEM><MEAN_ELEMENT_THEORY>SGP4</MEAN_ELEMENT_THEORY></metadata><data><meanElements><EPOCH>2020-06-25T12:04:18.452640</EPOCH><MEAN_MOTION>15.60371326</MEAN_MOTION><ECCENTRICITY>.0002417</ECCENTRICITY><INCLINATION>51.6403</INCLINATION><RA_OF_ASC_NODE>292.0086</RA_OF_ASC_NODE><ARG_OF_PERICENTER>356.3446</ARG_OF_PERICENTER><MEAN_ANOMALY>3.7529</MEAN_ANOMALY></meanElements><tleParameters><EPHEMERIS_TYPE>0</EPHEMERIS_TYPE><CLASSIFICATION_TYPE>U</CLASSIFICATION_TYPE><NORAD_CAT_ID>44385</NORAD_CAT_ID><ELEMENT_SET_NO>999</ELEMENT_SET_NO><REV_AT_EPOCH>5575</REV_AT_EPOCH><BSTAR>.12433E-3</BSTAR><MEAN_MOTION_DOT>9.889E-5</MEAN_MOTION_DOT><MEAN_MOTION_DDOT>0</MEAN_MOTION_DDOT></tleParameters></data></segment></body></omm>

</ndm>
